{"spkid": "50689294", "covariance": {"epoch": "2457278.5", "labels": ["e", "q", "tp", "node", "peri", "i"], "elements": [{"label": "e", "sigma": 1.19634023414964e-08, "name": "e", "title": "eccentricity", "value": ".5190146180308866", "units": null}, {"label": "q", "value": "1.021176573086179", "title": "perihelion distance", "units": "au", "sigma": 4.18948622503276e-08, "name": "q"}, {"label": "tp", "sigma": 1.28838185352483e-05, "name": "tp", "units": "TDB", "value": "2456904.673858626621", "title": "time of perihelion passage"}, {"name": "om", "sigma": 2.04146272367319e-05, "units": "deg", "title": "longitude of the ascending node", "value": "358.3196212327368", "label": "node"}, {"label": "peri", "value": "341.4232574547895", "title": "argument of perihelion", "units": "deg", "name": "w", "sigma": 2.18218225853864e-05}, {"label": "i", "sigma": 2.81275064792418e-06, "name": "i", "units": "deg", "value": "1.485620861744672", "title": "inclination"}], "data": [["1.431229955845207E-16", "-3.704250038821125E-16", "-6.357413722026017E-14", "-5.335434930792739E-14", "-3.09499813240032E-14", "-5.5418872307874E-15"], ["-3.704250038821125E-16", "1.755179482973928E-15", "4.49517285211387E-13", "2.590676683381304E-13", "2.99605209597656E-13", "2.880867602554569E-14"], ["-6.357413722026017E-14", "4.49517285211387E-13", "1.659927800492085E-10", "7.376632418400733E-11", "1.234832914494623E-10", "7.893931307977578E-12"], ["-5.335434930792739E-14", "2.590676683381304E-13", "7.376632418400733E-11", "4.167570052147144E-10", "-3.284602937036467E-10", "-2.453738930562348E-11"], ["-3.09499813240032E-14", "2.99605209597656E-13", "1.234832914494623E-10", "-3.284602937036467E-10", "4.761919409480816E-10", "3.403063657903496E-11"], ["-5.5418872307874E-15", "2.880867602554569E-14", "7.893931307977578E-12", "-2.453738930562348E-11", "3.403063657903496E-11", "7.911566207397881E-12"]]}, "elements": [{"label": "e", "title": "eccentricity", "value": ".5185962803582206", "units": null, "sigma": "1.1578E-8", "name": "e"}, {"label": "a", "value": "2.122538800753745", "title": "semi-major axis", "units": "au", "sigma": "5.811E-8", "name": "a"}, {"sigma": "3.9714E-8", "name": "q", "title": "perihelion distance", "value": "1.021798073766854", "units": "au", "label": "q"}, {"label": "i", "units": "deg", "title": "inclination; angle with respect to x-y ecliptic plane", "value": "1.478114598304063", "name": "i", "sigma": "2.8133E-6"}, {"label": "node", "name": "om", "sigma": "2.0519E-5", "value": "358.2745642600562", "title": "longitude of the ascending node", "units": "deg"}, {"units": "deg", "value": "341.5902558778663", "title": "argument of perihelion", "sigma": "2.1979E-5", "name": "w", "label": "peri"}, {"label": "M", "title": "mean anomaly", "value": "288.3011346753534", "units": "deg", "sigma": "6.0491E-5", "name": "ma"}, {"label": "tp", "sigma": ".00019902", "name": "tp", "units": "TDB", "value": "2461425.452936077626", "title": "time of perihelion passage"}, {"label": "period", "units": "d", "value": "1129.488683276375", "title": "sidereal orbital period", "name": "per", "sigma": "4.6384E-5"}, {"sigma": "1.3089E-8", "name": "n", "units": "deg/d", "title": "mean motion", "value": ".3187282930146113", "label": "n"}, {"label": "Q", "value": "3.223279527740635", "title": "aphelion distance", "units": "au", "sigma": "8.8245E-8", "name": "ad"}], "epoch": "2461200.5"}